[{"OBJECT_NAME":"STARLINK-5799","OBJECT_ID":"2023-042S","EPOCH":"2026-03-09T00:39:41.630688","MEAN_MOTION":15.02544158,"ECCENTRICITY":0.00014327,"INCLINATION":43.0042,"RA_OF_ASC_NODE":59.4584,"ARG_OF_PERICENTER":255.7667,"MEAN_ANOMALY":104.3017,"EPHEMERIS_TYPE":0,"CLASSIFICATION_TYPE":"U","NORAD_CAT_ID":56002,"ELEMENT_SET_NO":999,"REV_AT_EPOCH":16281,"BSTAR":0.00011105933,"MEAN_MOTION_DOT":1.297e-5,"MEAN_MOTION_DDOT":0},{"OBJECT_NAME":"PEGASUS DEB","OBJECT_ID":"1994-029AFQ","EPOCH":"2026-03-08T03:35:33.923616","MEAN_MOTION":14.03181486,"ECCENTRICITY":0.04520735,"INCLINATION":82.1295,"RA_OF_ASC_NODE":34.4203,"ARG_OF_PERICENTER":342.2511,"MEAN_ANOMALY":16.3288,"EPHEMERIS_TYPE":0,"CLASSIFICATION_TYPE":"U","NORAD_CAT_ID":39917,"ELEMENT_SET_NO":999,"REV_AT_EPOCH":9491,"BSTAR":0.0063311837,"MEAN_MOTION_DOT":0.00024723,"MEAN_MOTION_DDOT":0}]
